[{"OBJECT_NAME":"STARLINK-5783","OBJECT_ID":"2023-042AN","EPOCH":"2026-03-09T22:00:01.999584","MEAN_MOTION":15.08650894,"ECCENTRICITY":0.00016174,"INCLINATION":43.0002,"RA_OF_ASC_NODE":41.7777,"ARG_OF_PERICENTER":282.5326,"MEAN_ANOMALY":144.2622,"EPHEMERIS_TYPE":0,"CLASSIFICATION_TYPE":"U","NORAD_CAT_ID":56022,"ELEMENT_SET_NO":999,"REV_AT_EPOCH":573,"BSTAR":0.0037600239,"MEAN_MOTION_DOT":0.00060186,"MEAN_MOTION_DDOT":0},{"OBJECT_NAME":"FENGYUN 1C DEB","OBJECT_ID":"1999-025CUF","EPOCH":"2026-03-09T01:34:38.628768","MEAN_MOTION":15.17132493,"ECCENTRICITY":0.01273829,"INCLINATION":98.8955,"RA_OF_ASC_NODE":293.2327,"ARG_OF_PERICENTER":89.1897,"MEAN_ANOMALY":272.3925,"EPHEMERIS_TYPE":0,"CLASSIFICATION_TYPE":"U","NORAD_CAT_ID":32185,"ELEMENT_SET_NO":999,"REV_AT_EPOCH":96318,"BSTAR":0.0036969643,"MEAN_MOTION_DOT":0.00091378,"MEAN_MOTION_DDOT":0}]
